CCSDS_OMM_VERS,COMMENT,CREATION_DATE,ORIGINATOR,OBJECT_NAME,OBJECT_ID,CENTER_NAME,REF_FRAME,TIME_SYSTEM,MEAN_ELEMENT_THEORY,EPOCH,MEAN_MOTION,ECCENTRICITY,INCLINATION,RA_OF_ASC_NODE,ARG_OF_PERICENTER,MEAN_ANOMALY,EPHEMERIS_TYPE,CLASSIFICATION_TYPE,NORAD_CAT_ID,ELEMENT_SET_NO,REV_AT_EPOCH,BSTAR,MEAN_MOTION_DOT,MEAN_MOTION_DDOT,SEMIMAJOR_AXIS,PERIOD,APOAPSIS,PERIAPSIS,OBJECT_TYPE,RCS_SIZE,COUNTRY_CODE,LAUNCH_DATE,SITE,DECAY_DATE,FILE,GP_ID,TLE_LINE0,TLE_LINE1,TLE_LINE2
2,GENERATED VIA SPACE-TRACK.ORG API,2004-08-17T15:27:48,18 SPCS,LEASAT 5,1990-002B,EARTH,TEME,UTC,SGP4,2000-11-21T11:29:00.749760,1.00271129,0.0001253,3.9926,22.8276,218.9619,146.9906,0,U,20410,999,2506,0.0,-1.65e-06,0,42164.942,1436.106,35792.091,35781.524,PAYLOAD,MEDIUM,US,1990-01-09,AFETR,,35605,35113178,0 LEASAT 5,1 20410U 90002B   00326.47848090 -.00000165  00000-0  00000+0 0  9991,2 20410 003.9926 022.8276 0001253 218.9619 146.9906 01.00271129 25063
2,GENERATED VIA SPACE-TRACK.ORG API,2004-08-17T15:27:51,18 SPCS,LEASAT 5,1990-002B,EARTH,TEME,UTC,SGP4,2000-11-22T12:44:20.237855,1.00271014,0.000125,3.9931,22.8434,220.6577,165.1443,0,U,20410,999,2507,0.0,-1.63e-06,0,42164.975,1436.107,35792.11,35781.569,PAYLOAD,MEDIUM,US,1990-01-09,AFETR,,35606,35122678,0 LEASAT 5,1 20410U 90002B   00327.53078979 -.00000163  00000-0  00000+0 0  9998,2 20410 003.9931 022.8434 0001250 220.6577 165.1443 01.00271014 25078
2,GENERATED VIA SPACE-TRACK.ORG API,2004-08-17T15:27:51,18 SPCS,LEASAT 5,1990-002B,EARTH,TEME,UTC,SGP4,2000-11-23T06:56:22.330175,1.00270925,0.000125,3.9935,22.8532,220.6614,78.8839,0,U,20410,999,2507,0.0,-1.62e-06,0,42165.0,1436.109,35792.135,35781.594,PAYLOAD,MEDIUM,US,1990-01-09,AFETR,,35606,35144368,0 LEASAT 5,1 20410U 90002B   00328.28914734 -.00000162 +00000-0 +00000-0 0  9999,2 20410 003.9935 022.8532 0001250 220.6614 078.8839 01.00270925025072
2,GENERATED VIA SPACE-TRACK.ORG API,2004-08-17T15:27:51,18 SPCS,LEASAT 5,1990-002B,EARTH,TEME,UTC,SGP4,2000-11-23T14:59:57.146208,1.00270892,0.0001218,3.9933,22.8642,222.5076,198.252,0,U,20410,999,2508,0.0,-1.61e-06,0,42165.009,1436.109,35792.009,35781.738,PAYLOAD,MEDIUM,US,1990-01-09,AFETR,,35606,35133609,0 LEASAT 5,1 20410U 90002B   00328.62496697 -.00000161  00000-0  00000+0 0  9998,2 20410 003.9933 022.8642 0001218 222.5076 198.2520 01.00270892 25087
2,GENERATED VIA SPACE-TRACK.ORG API,2004-08-17T15:27:51,18 SPCS,LEASAT 5,1990-002B,EARTH,TEME,UTC,SGP4,2000-11-24T15:36:06.289056,1.00270781,0.0001173,3.9936,22.8787,223.1079,207.682,0,U,20410,999,2509,0.0,-1.59e-06,0,42165.04,1436.111,35791.851,35781.959,PAYLOAD,MEDIUM,US,1990-01-09,AFETR,,35606,35144369,0 LEASAT 5,1 20410U 90002B   00329.65007279 -.00000159  00000-0  00000+0 0  9993,2 20410 003.9936 022.8787 0001173 223.1079 207.6820 01.00270781 25096
2,GENERATED VIA SPACE-TRACK.ORG API,2004-08-17T15:27:51,18 SPCS,LEASAT 5,1990-002B,EARTH,TEME,UTC,SGP4,2000-11-25T13:39:30.538944,1.00270678,0.0001169,3.9941,22.8911,224.1761,178.3543,0,U,20410,999,2510,0.0,-1.58e-06,0,42165.069,1436.112,35791.863,35782.005,PAYLOAD,MEDIUM,US,1990-01-09,AFETR,,35606,35165897,0 LEASAT 5,1 20410U 90002B   00330.56910346 -.00000158 +00000-0 +00000-0 0  9993,2 20410 003.9941 022.8911 0001169 224.1761 178.3543 01.00270678025108
2,GENERATED VIA SPACE-TRACK.ORG API,2004-08-17T15:27:51,18 SPCS,LEASAT 5,1990-002B,EARTH,TEME,UTC,SGP4,2000-11-27T08:22:08.329728,1.0027047,0.0001172,3.9952,22.9156,223.8966,101.0114,0,U,20410,999,2511,0.0,-1.55e-06,0,42165.127,1436.115,35791.934,35782.05,PAYLOAD,MEDIUM,US,1990-01-09,AFETR,,35606,35165898,0 LEASAT 5,1 20410U 90002B   00332.34870752 -.00000155  00000-0  00000+0 0  9993,2 20410 003.9952 022.9156 0001172 223.8966 101.0114 01.00270470 25117
2,GENERATED VIA SPACE-TRACK.ORG API,2004-08-17T15:27:51,18 SPCS,LEASAT 5,1990-002B,EARTH,TEME,UTC,SGP4,2000-11-28T12:00:01.538783,1.00270409,0.0001213,3.9962,22.936,229.9579,150.5318,0,U,20410,999,2513,0.0,-1.54e-06,0,42165.144,1436.116,35792.124,35781.895,PAYLOAD,MEDIUM,US,1990-01-09,AFETR,,35606,35192677,0 LEASAT 5,1 20410U 90002B   00333.50001781 -.00000154 +00000-0 +00000-0 0  9990,2 20410 003.9962 022.9360 0001213 229.9579 150.5318 01.00270409025137
2,GENERATED VIA SPACE-TRACK.ORG API,2004-08-17T15:27:54,18 SPCS,LEASAT 5,1990-002B,EARTH,TEME,UTC,SGP4,2000-11-29T10:34:39.609408,1.00270319,0.0001245,3.9967,22.9486,230.3633,129.6951,0,U,20410,999,2514,0.0,-1.52e-06,0,42165.169,1436.117,35792.284,35781.785,PAYLOAD,MEDIUM,US,1990-01-09,AFETR,,35607,35236105,0 LEASAT 5,1 20410U 90002B   00334.44073622 -.00000152 +00000-0 +00000-0 0  9995,2 20410 003.9967 022.9486 0001245 230.3633 129.6951 01.00270319025144
2,GENERATED VIA SPACE-TRACK.ORG API,2004-08-17T15:27:54,18 SPCS,LEASAT 5,1990-002B,EARTH,TEME,UTC,SGP4,2000-12-04T14:05:56.320224,1.00272224,0.0001153,3.9989,23.0188,218.852,199.0563,0,U,20410,999,2519,0.0,-1.45e-06,0,42164.635,1436.09,35791.362,35781.639,PAYLOAD,MEDIUM,US,1990-01-09,AFETR,,35607,35251757,0 LEASAT 5,1 20410U 90002B   00339.58745741 -.00000145 +00000-0 +00000-0 0  9995,2 20410 003.9989 023.0188 0001153 218.8520 199.0563 01.00272224025195
2,GENERATED VIA SPACE-TRACK.ORG API,2004-08-17T15:27:54,18 SPCS,LEASAT 5,1990-002B,EARTH,TEME,UTC,SGP4,2000-12-06T12:50:37.620959,1.00272031,0.0001188,3.9997,23.0448,219.3295,181.6456,0,U,20410,999,2521,0.0,-1.43e-06,0,42164.689,1436.093,35791.564,35781.545,PAYLOAD,MEDIUM,US,1990-01-09,AFETR,,35607,35261274,0 LEASAT 5,1 20410U 90002B   00341.53515765 -.00000143  00000-0  00000+0 0  9991,2 20410 003.9997 023.0448 0001188 219.3295 181.6456 01.00272031 25213
2,GENERATED VIA SPACE-TRACK.ORG API,2004-08-17T15:27:54,18 SPCS,LEASAT 5,1990-002B,EARTH,TEME,UTC,SGP4,2000-12-07T10:22:48.960768,1.00271949,0.0001238,4.0001,23.0541,219.8079,145.0897,0,U,20410,999,2522,0.0,-1.42e-06,0,42164.712,1436.094,35791.797,35781.357,PAYLOAD,MEDIUM,US,1990-01-09,AFETR,,35607,35279886,0 LEASAT 5,1 20410U 90002B   00342.43251112 -.00000142 +00000-0 +00000-0 0  9994,2 20410 004.0001 023.0541 0001238 219.8079 145.0897 01.00271949025227
2,GENERATED VIA SPACE-TRACK.ORG API,2004-08-17T15:27:54,18 SPCS,LEASAT 5,1990-002B,EARTH,TEME,UTC,SGP4,2000-12-08T10:30:40.569983,1.00271841,0.0001257,4.0007,23.0676,219.7797,148.0601,0,U,20410,999,2523,0.0,-1.42e-06,0,42164.743,1436.096,35791.908,35781.308,PAYLOAD,MEDIUM,US,1990-01-09,AFETR,,35607,35301489,0 LEASAT 5,1 20410U 90002B   00343.43796956 -.00000142 +00000-0 +00000-0 0  9995,2 20410 004.0007 023.0676 0001257 219.7797 148.0601 01.00271841025237
2,GENERATED VIA SPACE-TRACK.ORG API,2004-08-17T15:27:54,18 SPCS,LEASAT 5,1990-002B,EARTH,TEME,UTC,SGP4,2000-12-09T10:15:39.050783,1.00271664,0.0001163,4.0014,23.0826,221.3041,143.7371,0,U,20410,999,2524,0.0,-1.43e-06,0,42164.792,1436.098,35791.561,35781.754,PAYLOAD,MEDIUM,US,1990-01-09,AFETR,,35607,35301490,0 LEASAT 5,1 20410U 90002B   00344.42753531 -.00000143 +00000-0 +00000-0 0  9998,2 20410 004.0014 023.0826 0001163 221.3041 143.7371 01.00271664025249
2,GENERATED VIA SPACE-TRACK.ORG API,2004-08-17T15:27:54,18 SPCS,LEASAT 5,1990-002B,EARTH,TEME,UTC,SGP4,2000-12-09T10:37:52.188096,1.00271662,0.0001163,4.0014,23.0828,221.3042,149.3067,0,U,20410,999,2524,0.0,-1.43e-06,0,42164.793,1436.098,35791.562,35781.754,PAYLOAD,MEDIUM,US,1990-01-09,AFETR,,35607,35301491,0 LEASAT 5,1 20410U 90002B   00344.44296514 -.00000143 +00000-0 +00000-0 0  9993,2 20410 004.0014 023.0828 0001163 221.3042 149.3067 01.00271662025244
2,GENERATED VIA SPACE-TRACK.ORG API,2004-08-17T15:27:54,18 SPCS,LEASAT 5,1990-002B,EARTH,TEME,UTC,SGP4,2000-12-10T12:17:32.180064,1.00271475,0.0001188,4.002,23.0969,220.5945,175.969,0,U,20410,999,2525,0.0,-1.45e-06,0,42164.845,1436.101,35791.72,35781.701,PAYLOAD,MEDIUM,US,1990-01-09,AFETR,,35607,35301492,0 LEASAT 5,1 20410U 90002B   00345.51217801 -.00000145  00000-0  00000+0 0  9995,2 20410 004.0020 023.0969 0001188 220.5945 175.9690 01.00271475 25257
2,GENERATED VIA SPACE-TRACK.ORG API,2004-08-17T15:27:57,18 SPCS,LEASAT 5,1990-002B,EARTH,TEME,UTC,SGP4,2000-12-11T12:08:15.929952,1.00271305,0.0001197,4.0026,23.1097,220.5646,174.6433,0,U,20410,999,2526,0.0,-1.48e-06,0,42164.893,1436.103,35791.805,35781.711,PAYLOAD,MEDIUM,US,1990-01-09,AFETR,,35608,35317514,0 LEASAT 5,1 20410U 90002B   00346.50573993 -.00000148 +00000-0 +00000-0 0  9996,2 20410 004.0026 023.1097 0001197 220.5646 174.6433 01.00271305025268
2,GENERATED VIA SPACE-TRACK.ORG API,2004-08-17T15:27:57,18 SPCS,LEASAT 5,1990-002B,EARTH,TEME,UTC,SGP4,2000-12-14T10:50:04.429824,1.0027086,0.0001064,4.0042,23.1519,223.3356,155.1717,0,U,20410,999,2529,0.0,-1.58e-06,0,42165.018,1436.11,35791.369,35782.396,PAYLOAD,MEDIUM,US,1990-01-09,AFETR,,35608,35344830,0 LEASAT 5,1 20410U 90002B   00349.45144016 -.00000158 +00000-0 +00000-0 0  9994,2 20410 004.0042 023.1519 0001064 223.3356 155.1717 01.00270860025294
2,GENERATED VIA SPACE-TRACK.ORG API,2004-08-17T15:27:57,18 SPCS,LEASAT 5,1990-002B,EARTH,TEME,UTC,SGP4,2000-12-17T13:20:14.371295,1.00269761,0.0002909,4.0062,23.2024,269.6133,149.3835,0,U,20410,999,2532,0.0,-1.64e-06,0,42165.326,1436.125,35799.457,35774.925,PAYLOAD,MEDIUM,US,1990-01-09,AFETR,,35608,35366242,0 LEASAT 5,1 20410U 90002B   00352.55572189 -.00000164 +00000-0 +00000-0 0  9992,2 20410 004.0062 023.2024 0002909 269.6133 149.3835 01.00269761025321
2,GENERATED VIA SPACE-TRACK.ORG API,2004-08-17T15:27:57,18 SPCS,LEASAT 5,1990-002B,EARTH,TEME,UTC,SGP4,2000-12-18T12:25:09.890976,1.00270114,0.0001812,4.0062,23.203,258.7676,147.4213,0,U,20410,999,2533,0.0,-1.64e-06,0,42165.227,1436.12,35794.732,35779.452,PAYLOAD,MEDIUM,US,1990-01-09,AFETR,,35608,35366243,0 LEASAT 5,1 20410U 90002B   00353.51747559 -.00000164  00000-0  00000+0 0  9993,2 20410 004.0062 023.2030 0001812 258.7676 147.4213 01.00270114 25335
